H1 CPF 01  gfz 2022 02 21 13  5522 tandemx   
H2 1003001  6202 36605    2022 02 21 12 59 42 2022 02 26 00 00 42   120 1 1  0 0 0
H9
10 0 59633  72702.000000  0   -5786670.839   3732274.015   -229102.241
10 0 59633  72822.000000  0   -5614399.982   3832349.244  -1129231.627
10 0 59633  72942.000000  0   -5342957.254   3861620.322  -2009502.381
10 0 59633  73062.000000  0   -4978420.425   3817950.482  -2854462.566
10 0 59633  73182.000000  0   -4528519.415   3700605.804  -3649313.996
10 0 59633  73302.000000  0   -4002465.013   3510288.039  -4380173.160
10 0 59633  73422.000000  0   -3410752.850   3249138.752  -5034310.987
10 0 59633  73542.000000  0   -2764946.946   2920714.593  -5600367.500
10 0 59633  73662.000000  0   -2077450.218   2529936.132  -6068539.939
10 0 59633  73782.000000  0   -1361263.125   2083010.181  -6430742.590
10 0 59633  73902.000000  0    -629737.773   1587327.697  -6680733.838
10 0 59633  74022.000000  0     103667.544   1051340.717  -6814212.944
10 0 59633  74142.000000  0     825629.826    484419.589  -6828885.629
10 0 59633  74262.000000  0    1523197.920   -103307.376  -6724500.967
10 0 59633  74382.000000  0    2184019.944   -701131.085  -6502853.962
10 0 59633  74502.000000  0    2796556.626  -1297951.420  -6167758.090
10 0 59633  74622.000000  0    3350280.313  -1882478.008  -5724986.552
10 0 59633  74742.000000  0    3835855.809  -2443438.929  -5182184.023
10 0 59633  74862.000000  0    4245302.149  -2969796.989  -4548746.129
10 0 59633  74982.000000  0    4572128.215  -3450966.946  -3835666.664
10 0 59633  75102.000000  0    4811441.992  -3877029.037  -3055356.880
10 0 59633  75222.000000  0    4960031.762  -4238936.150  -2221436.761
10 0 59633  75342.000000  0    5016415.054  -4528708.591  -1348500.344
10 0 59633  75462.000000  0    4980854.129  -4739612.345   -451859.783
10 0 59633  75582.000000  0    4855335.510  -4866315.558    452727.958
10 0 59633  75702.000000  0    4643514.407  -4905017.992   1349345.338
10 0 59633  75822.000000  0    4350625.138  -4853549.752   2222203.617
10 0 59633  75942.000000  0    3983359.167  -4711437.223   3055929.143
10 0 59633  76062.000000  0    3549715.422  -4479934.876   3835841.767
10 0 59633  76182.000000  0    3058824.910  -4162021.441   4548219.050
10 0 59633  76302.000000  0    2520755.624  -3762360.597   5180540.337
10 0 59633  76422.000000  0    1946302.768  -3287228.593   5721706.368
10 0 59633  76542.000000  0    1346768.407  -2744409.873   6162231.798
10 0 59633  76662.000000  0     733736.161  -2143063.616   6494405.667
10 0 59633  76782.000000  0     118845.688  -1493565.193   6712420.088
10 0 59633  76902.000000  0    -486428.287   -807324.706   6812466.030
10 0 59633  77022.000000  0   -1070989.076    -96584.754   6792795.903
10 0 59633  77142.000000  0   -1624320.720    625797.942   6653751.998
10 0 59633  77262.000000  0   -2136676.653   1346584.596   6397760.803
10 0 59633  77382.000000  0   -2599251.719   2052396.082   6029293.297
10 0 59633  77502.000000  0   -3004334.657   2729961.058   5554791.905
10 0 59633  77622.000000  0   -3345439.388   3366367.133   4982564.353
10 0 59633  77742.000000  0   -3617412.907   3949309.877   4322644.158
10 0 59633  77862.000000  0   -3816516.705   4467335.788   3586619.562
10 0 59633  77982.000000  0   -3940479.882   4910073.625   2787432.406
10 0 59633  78102.000000  0   -3988522.610   5268448.328   1939149.324
10 0 59633  78222.000000  0   -3961348.229   5534871.354   1056710.532
10 0 59633  78342.000000  0   -3861105.887   5703404.027    155661.707
10 0 59633  78462.000000  0   -3691324.212   5769890.436   -748128.098
10 0 59633  78582.000000  0   -3456815.112   5732053.404  -1638756.669
10 0 59633  78702.000000  0   -3163551.413   5589551.133  -2500578.361
10 0 59633  78822.000000  0   -2818520.553   5343994.505  -3318484.998
10 0 59633  78942.000000  0   -2429562.106   4998925.336  -4078173.773
10 0 59633  79062.000000  0   -2005191.361   4559756.194  -4766396.800
10 0 59633  79182.000000  0   -1554413.809   4033675.141  -5371186.071
10 0 59633  79302.000000  0   -1086536.071   3429519.833  -5882053.628
10 0 59633  79422.000000  0    -610975.551   2757621.189  -6290164.699
10 0 59633  79542.000000  0    -137073.133   2029620.442  -6588478.930
10 0 59633  79662.000000  0     326086.105   1258265.738  -6771860.038
10 0 59633  79782.000000  0     769842.172    457190.403  -6837155.642
10 0 59633  79902.000000  0    1186118.419   -359323.916  -6783245.702
10 0 59633  80022.000000  0    1567564.575  -1176596.863  -6611058.406
10 0 59633  80142.000000  0    1907682.922  -1979806.000  -6323555.085
10 0 59633  80262.000000  0    2200937.564  -2754248.507  -5925685.418
10 0 59633  80382.000000  0    2442844.460  -3485605.880  -5424312.853
10 0 59633  80502.000000  0    2630041.704  -4160209.536  -4828107.335
10 0 59633  80622.000000  0    2760336.860  -4765297.529  -4147404.499
10 0 59633  80742.000000  0    2832731.173  -5289259.366  -3394037.618
10 0 59633  80862.000000  0    2847420.276  -5721867.401  -2581141.261
10 0 59633  80982.000000  0    2805770.782  -6054486.059  -1722926.985
10 0 59633  81102.000000  0    2710273.432  -6280254.546   -834436.186
10 0 59633  81222.000000  0    2564471.303  -6394237.297     68727.579
10 0 59633  81342.000000  0    2372865.398  -6393536.047    970678.946
10 0 59633  81462.000000  0    2140801.000  -6277363.082   1855537.791
10 0 59633  81582.000000  0    1874336.025  -6047071.232   2707719.351
10 0 59633  81702.000000  0    1580095.321  -5706139.176   3512216.832
10 0 59633  81822.000000  0    1265115.087  -5260114.664   4254871.467
10 0 59633  81942.000000  0     936681.380  -4716517.459   4922624.706
10 0 59633  82062.000000  0     602166.710  -4084705.074   5503749.597
10 0 59633  82182.000000  0     268867.775  -3375701.429   5988055.720
10 0 59633  82302.000000  0     -56150.172  -2601994.603   6367062.497
10 0 59633  82422.000000  0    -366200.171  -1777310.846   6634140.541
10 0 59633  82542.000000  0    -655108.385   -916368.315   6784621.751
10 0 59633  82662.000000  0    -917335.262    -34612.715   6815877.178
10 0 59633  82782.000000  0   -1148080.863    852060.701   6727360.382
10 0 59633  82902.000000  0   -1343372.301   1727593.402   6520616.023
10 0 59633  83022.000000  0   -1500132.079   2576053.744   6199254.615
10 0 59633  83142.000000  0   -1616226.909   3381927.217   5768893.367
10 0 59633  83262.000000  0   -1690495.710   4130401.935   5237063.110
10 0 59633  83382.000000  0   -1722756.293   4807645.280   4613083.456
10 0 59633  83502.000000  0   -1713791.292   5401066.949   3907904.591
10 0 59633  83622.000000  0   -1665312.242   5899561.573   3133918.373
10 0 59633  83742.000000  0   -1579904.472   6293725.633   2304741.434
10 0 59633  83862.000000  0   -1460952.150   6576044.457   1434973.343
10 0 59633  83982.000000  0   -1312544.267   6741043.245    539934.156
10 0 59633  84102.000000  0   -1139365.414   6785397.959   -364612.096
10 0 59633  84222.000000  0    -946573.960   6708005.320  -1262743.979
10 0 59633  84342.000000  0    -739669.515   6510005.338  -2138674.450
10 0 59633  84462.000000  0    -524355.184   6194755.963  -2977035.923
10 0 59633  84582.000000  0    -306398.038   5767765.331  -3763152.904
10 0 59633  84702.000000  0     -91490.338   5236584.256  -4483299.358
10 0 59633  84822.000000  0     114884.862   4610660.349  -5124935.854
10 0 59633  84942.000000  0     307580.885   3901158.582  -5676921.811
10 0 59633  85062.000000  0     481904.341   3120752.093  -6129700.401
10 0 59633  85182.000000  0     633718.828   2283388.342  -6475452.858
10 0 59633  85302.000000  0     759534.201   1404037.171  -6708221.531
10 0 59633  85422.000000  0     856580.060    498424.573  -6824002.454
10 0 59633  85542.000000  0     922862.011   -417244.451  -6820806.878
10 0 59633  85662.000000  0     957200.172  -1326570.220  -6698690.954
10 0 59633  85782.000000  0     959249.354  -2213243.932  -6459753.131
10 0 59633  85902.000000  0     929501.500  -3061331.629  -6108103.148
10 0 59633  86022.000000  0     869269.488  -3855557.028  -5649801.157
10 0 59633  86142.000000  0     780651.999  -4581576.143  -5092762.402
10 0 59633  86262.000000  0     666481.586  -5226237.903  -4446631.830
10 0 59633  86382.000000  0     530255.068  -5777828.969  -3722628.722
10 0 59634    102.000000  0     376047.797  -6226296.328  -2933360.684
10 0 59634    222.000000  0     208413.627  -6563442.089  -2092610.737
10 0 59634    342.000000  0      32272.638  -6783087.032  -1215099.361
10 0 59634    462.000000  0    -147211.307  -6881196.111   -316224.656
10 0 59634    582.000000  0    -324759.984  -6855962.018    588212.741
10 0 59634    702.000000  0    -495114.014  -6707845.407   1482294.092
10 0 59634    822.000000  0    -653166.536  -6439570.256   2350271.759
10 0 59634    942.000000  0    -794093.749  -6056072.694   3176856.431
10 0 59634   1062.000000  0    -913477.699  -5564403.574   3947494.998
10 0 59634   1182.000000  0   -1007420.065  -4973589.837   4648630.649
10 0 59634   1302.000000  0   -1072643.704  -4294459.514   5267942.888
10 0 59634   1422.000000  0   -1106578.693  -3539434.214   5794563.936
10 0 59634   1542.000000  0   -1107432.158  -2722291.469   6219267.033
10 0 59634   1662.000000  0   -1074239.008  -1857905.064   6534620.913
10 0 59634   1782.000000  0   -1006893.800   -961971.149   6735113.155
10 0 59634   1902.000000  0    -906164.221    -50721.039   6817241.980
10 0 59634   2022.000000  0    -773685.099    859373.443   6779573.487
10 0 59634   2142.000000  0    -611931.650   1751897.379   6622765.541
10 0 59634   2262.000000  0    -424173.139   2610788.546   6349556.863
10 0 59634   2382.000000  0    -214408.012   3420626.486   5964722.088
10 0 59634   2502.000000  0      12717.999   4166911.384   5474993.271
10 0 59634   2622.000000  0     252010.083   4836327.484   4888947.721
10 0 59634   2742.000000  0     497837.728   5416988.012   4216864.200
99
